CALSPHERE 1             
1 00900U 64063C   22295.85329984  .00000566  00000+0  59225-3 0  9998
2 00900  90.1835  43.2644 0026003   2.6840 119.1429 13.73936313888157
CALSPHERE 2             
1 00902U 64063E   22295.84254505  .00000042  00000+0  49754-4 0  9991
2 00902  90.1978  46.4295 0019860 134.1395 355.1272 13.52725045675992
LCS 1                   
1 01361U 65034C   22295.85545919  .00000017  00000+0  10648-2 0  9993
2 01361  32.1385 102.7912 0012173 328.3960  31.5806  9.89302232 77849
TEMPSAT 1               
1 01512U 65065E   22296.33833708  .00000045  00000+0  70710-4 0  9994
2 01512  89.9244 217.6300 0071178  32.6897  83.9249 13.33458751782412
CALSPHERE 4A            
1 01520U 65065H   22296.49688477  .00000115  00000+0  20662-3 0  9999
2 01520  89.9806 130.0459 0067537 262.4514 123.9036 13.35911164785169
OPS 5712 (P/L 160)      
1 02826U 67053A   22296.56162790  .00002680  00000+0  68915-3 0  9993
2 02826  69.9298 348.4322 0005655 214.9381 145.1383 14.51217859871811
OPS 5712 (P/L 153)      
1 02874U 67053H   22295.85621994  .00000051  00000+0  75572-4 0  9991
2 02874  69.9723  92.2502 0005274 144.9499 215.1954 13.96423320820614
SURCAL 150B             
1 02909U 67053J   22296.52571989  .00004585  00000+0  86553-3 0  9999
2 02909  69.9476 331.6054 0005963 248.4430 111.6076 14.65064050882868
RIGIDSPHERE 2 (LCS 4)   
1 05398U 71067E   22296.50080193  .00000543  00000+0  18309-3 0  9998
2 05398  87.6255 347.6920 0061564 324.5775  35.1340 14.34360718682847
COSMOS 2493 (SKRL-756 1)
1 39490U 13078A   22296.48544580  .00001701  00000+0  17444-3 0  9994
2 39490  82.4147 111.4673 0017836  35.8637 324.3775 14.89765655479088
COSMOS 2494 (SKRL-756 2)
1 39491U 13078B   22296.46940621  .00001843  00000+0  18217-3 0  9995
2 39491  82.4147 104.9799 0021761  10.8368 349.3315 14.91240441479419
